IRIDIUM 36              
1 24967U 97056C   25015.70157025  .00000607  00000+0  19671-3 0  9994
2 24967  86.3947 237.0078 0002090  93.1706 266.9731 14.37353968430315
IRIDIUM 39              
1 25042U 97069D   25015.79345344  .00000974  00000+0  25190-3 0  9995
2 25042  86.3905 276.4790 0020138  94.5396 265.8109 14.48826357426899
IRIDIUM 38              
1 25043U 97069E   25015.84750018  .00000744  00000+0  24027-3 0  9993
2 25043  86.3967 297.2747 0000948 143.1127 217.0137 14.37859636424062
IRIDIUM 42              
1 25077U 97077A   25015.87664942  .00000702  00000+0  23467-3 0  9993
2 25077  86.3977 303.2460 0001503  88.8045 271.3324 14.36115305419334
IRIDIUM 44              
1 25078U 97077B   25015.82444261  .00000688  00000+0  21251-3 0  9991
2 25078  86.3956 285.5871 0002971 122.7838 237.3648 14.39984049421772
IRIDIUM 45              
1 25104U 97082A   25015.79407935  .00024055  00000+0  10308-2 0  9994
2 25104  86.3638 121.4869 0133162 179.2653 180.8810 15.14843846428912
IRIDIUM 24              
1 25105U 97082B   25015.85373861  .00000879  00000+0  26285-3 0  9992
2 25105  86.3949 144.8922 0010316 212.8384 147.2176 14.41815634421263
IRIDIUM 51              
1 25262U 98018A   25015.79326632  .00034093  00000+0  10592-2 0  9991
2 25262  86.3921 130.5417 0111043 110.7910 250.5275 15.27262034423678
